     2              NAVIGATION DATA                         RINEX VERSION / TYPE
CCRINEXN V1.6.0 UX  CDDIS               14-AUG-20 19:31     PGM / RUN BY / DATE 
IGS BROADCAST EPHEMERIS FILE                                COMMENT             
    0.4657D-08  0.1490D-07 -0.5960D-07 -0.1192D-06          ION ALPHA           
    0.7782D+05  0.4915D+05 -0.6554D+05 -0.2621D+06          ION BETA            
   -0.465661287308D-08-0.106581410364D-13   589824     2118 DELTA-UTC: A0,A1,T,W
    18                                                      LEAP SECONDS        
                                                            END OF HEADER       
19 20  8 13 14  0  0.0-0.118993688375D-03 0.511590769747D-11 0.000000000000D+00
    0.200000000000D+02-0.155312500000D+02 0.433982362822D-08-0.290700685216D+00
   -0.787898898125D-06 0.936837727204D-02 0.375136733055D-05 0.515369407082D+04
    0.396000000000D+06-0.126659870148D-06 0.743985113303D+00 0.204890966415D-07
    0.982012528992D+00 0.320625000000D+03 0.169436862343D+01-0.830606026646D-08
    0.182150444440D-10 0.100000000000D+01 0.211800000000D+04 0.000000000000D+00
    0.200000000000D+01 0.000000000000D+00-0.153668224812D-07 0.200000000000D+02
    0.388818000000D+06 0.400000000000D+01 0.000000000000D+00 0.000000000000D+00
20 20  8 13 14  0  0.0 0.527049414813D-03-0.113686837722D-12 0.000000000000D+00
    0.400000000000D+01-0.405312500000D+02 0.507271129879D-08 0.810829698060D+00
   -0.232458114624D-05 0.544734031428D-02 0.828318297863D-05 0.515366260338D+04
    0.396000000000D+06 0.111758708954D-06 0.259943413378D+01-0.521540641785D-07
    0.935082981594D+00 0.204343750000D+03 0.268803713800D+01-0.827891627866D-08
    0.892894335490D-10 0.100000000000D+01 0.211800000000D+04 0.000000000000D+00
    0.200000000000D+01 0.000000000000D+00-0.884756445885D-08 0.400000000000D+01
    0.395496000000D+06 0.400000000000D+01 0.000000000000D+00 0.000000000000D+00
21 20  8 13 14  0  0.0 0.351928174496D-04 0.443378667114D-11 0.000000000000D+00
    0.710000000000D+02-0.626562500000D+02 0.470162441296D-08-0.149583409447D+01
   -0.293739140034D-05 0.237888351548D-01 0.675395131111D-05 0.515507576942D+04
    0.396000000000D+06-0.447034835815D-06 0.161961172481D+01 0.480562448502D-06
    0.953794621077D+00 0.247625000000D+03-0.130255964253D+01-0.830498879326D-08
   -0.825034365993D-10 0.100000000000D+01 0.211800000000D+04 0.000000000000D+00
    0.200000000000D+01 0.000000000000D+00-0.102445483208D-07 0.710000000000D+02
    0.388818000000D+06 0.400000000000D+01 0.000000000000D+00 0.000000000000D+00
22 20  8 13 14  0  0.0-0.764462631196D-03 0.329691829393D-11 0.000000000000D+00
    0.530000000000D+02-0.227812500000D+02 0.514950021164D-08 0.251984967134D+01
   -0.114925205708D-05 0.683832645882D-02 0.841729342937D-05 0.515376381111D+04
    0.396000000000D+06 0.782310962677D-07 0.264662677383D+01 0.521540641785D-07
    0.931802320507D+00 0.198437500000D+03-0.110339273358D+01-0.816819738106D-08
    0.149649090628D-09 0.100000000000D+01 0.211800000000D+04 0.000000000000D+00
    0.200000000000D+01 0.000000000000D+00-0.181607902050D-07 0.530000000000D+02
    0.388818000000D+06 0.400000000000D+01 0.000000000000D+00 0.000000000000D+00
23 20  8 13 14  0  0.0 0.380035489798D-04 0.112549969344D-10 0.000000000000D+00
    0.131000000000D+03-0.349062500000D+02 0.445661418880D-08 0.165929752801D+01
   -0.203028321266D-05 0.937697477639D-03 0.863522291183D-05 0.515363736534D+04
    0.396000000000D+06 0.745058059692D-08 0.271089037318D+01-0.428408384323D-07
    0.961560959114D+00 0.213312500000D+03 0.169683594010D+01-0.792568766173D-08
    0.122147944537D-09 0.100000000000D+01 0.211800000000D+04 0.000000000000D+00
    0.256000000000D+03 0.100000000000D+01-0.838190317154D-08 0.387000000000D+03
    0.388800000000D+06 0.000000000000D+00 0.000000000000D+00 0.000000000000D+00
24 20  8 13 14  0  0.0-0.170986168087D-04-0.568434188608D-12 0.000000000000D+00
    0.790000000000D+02 0.139687500000D+02 0.501735184999D-08 0.160392424129D+01
    0.715255737305D-06 0.989198661409D-02 0.889971852303D-05 0.515364445496D+04
    0.396000000000D+06-0.175088644028D-06-0.151649935718D+01 0.465661287308D-07
    0.935743364759D+00 0.194375000000D+03 0.671287106580D+00-0.831891794489D-08
   -0.375729936374D-09 0.100000000000D+01 0.211800000000D+04 0.000000000000D+00
    0.282842707634D+01 0.000000000000D+00 0.279396772385D-08 0.790000000000D+02
    0.388855000000D+06 0.400000000000D+01 0.000000000000D+00 0.000000000000D+00
25 20  8 13 14  0  0.0 0.349278561771D-04 0.477484718431D-11 0.000000000000D+00
    0.850000000000D+02 0.755625000000D+02 0.448125803132D-08-0.322414199308D+00
    0.406801700592D-05 0.907715456560D-02 0.760704278946D-05 0.515375458908D+04
    0.396000000000D+06-0.111758708954D-07-0.405615445820D+00 0.100582838059D-06
    0.964782655824D+00 0.240562500000D+03 0.938885976118D+00-0.818248402368D-08
    0.103218586456D-09 0.100000000000D+01 0.211800000000D+04 0.000000000000D+00
    0.200000000000D+01 0.000000000000D+00 0.558793544769D-08 0.850000000000D+02
    0.388800000000D+06 0.000000000000D+00 0.000000000000D+00 0.000000000000D+00
26 20  8 13 14  0  0.0 0.260618049651D-03 0.659383658785D-11 0.000000000000D+00
    0.510000000000D+02 0.705000000000D+02 0.473091134716D-08-0.898164530786D+00
    0.366754829884D-05 0.482678983826D-02 0.700168311596D-05 0.515366670036D+04
    0.396000000000D+06 0.800937414169D-07-0.442339022773D+00-0.558793544769D-07
    0.945802417267D+00 0.232593750000D+03 0.206926457580D+00-0.822355682986D-08
    0.739316509786D-10 0.100000000000D+01 0.211800000000D+04 0.000000000000D+00
    0.200000000000D+01 0.000000000000D+00 0.698491930962D-08 0.510000000000D+02
    0.388818000000D+06 0.400000000000D+01 0.000000000000D+00 0.000000000000D+00
27 20  8 13 14  0  0.0-0.370144378394D-03-0.932232069317D-11 0.000000000000D+00
    0.500000000000D+01 0.665625000000D+01 0.429589322691D-08-0.281447127691D+01
    0.208616256714D-06 0.830647058319D-02 0.361911952496D-05 0.515367090797D+04
    0.396000000000D+06-0.391155481338D-07 0.639594856002D+00-0.216066837311D-06
    0.977869739560D+00 0.319812500000D+03 0.579619852202D+00-0.801711965950D-08
    0.603596570791D-10 0.100000000000D+01 0.211800000000D+04 0.000000000000D+00
    0.200000000000D+01 0.000000000000D+00 0.186264514923D-08 0.500000000000D+01
    0.388818000000D+06 0.400000000000D+01 0.000000000000D+00 0.000000000000D+00
28 20  8 13 14  0  0.0 0.689940992743D-03-0.375166564481D-11 0.000000000000D+00
    0.103000000000D+03 0.940312500000D+02 0.402373903345D-08-0.204548681590D+01
    0.521913170815D-05 0.183865051949D-01 0.620447099209D-05 0.515367032242D+04
    0.396000000000D+06 0.193715095520D-06-0.313213325266D+00 0.316649675369D-06
    0.976742420740D+00 0.265000000000D+03-0.140141785024D+01-0.772532179066D-08
    0.180721813503D-09 0.100000000000D+01 0.211800000000D+04 0.000000000000D+00
    0.400000000000D+01 0.000000000000D+00-0.111758708954D-07 0.103000000000D+03
    0.388818000000D+06 0.400000000000D+01 0.000000000000D+00 0.000000000000D+00
29 20  8 13 14  0  0.0-0.171855092049D-03-0.829913915368D-11 0.000000000000D+00
    0.220000000000D+02 0.387500000000D+01 0.424803409053D-08-0.263393580881D+01
    0.292435288429D-06 0.162574474234D-02 0.341050326824D-05 0.515376595116D+04
    0.396000000000D+06 0.167638063431D-07 0.710365373066D+00 0.521540641785D-07
    0.985472943212D+00 0.328218750000D+03 0.215952798912D+01-0.805319259065D-08
    0.835749098019D-10 0.100000000000D+01 0.211800000000D+04 0.000000000000D+00
    0.200000000000D+01 0.000000000000D+00-0.102445483208D-07 0.220000000000D+02
    0.388818000000D+06 0.400000000000D+01 0.000000000000D+00 0.000000000000D+00
30 20  8 13 14  0  0.0-0.281457323581D-03-0.738964445190D-11 0.000000000000D+00
    0.390000000000D+02 0.339062500000D+02 0.487841749138D-08 0.557353987414D+00
    0.180862843990D-05 0.478867068887D-02 0.884756445885D-05 0.515360841370D+04
    0.396000000000D+06 0.540167093277D-07-0.142150601372D+01 0.126659870148D-06
    0.937742369168D+00 0.196468750000D+03-0.281367467266D+01-0.816212569958D-08
   -0.252510518077D-09 0.100000000000D+01 0.211800000000D+04 0.000000000000D+00
    0.200000000000D+01 0.000000000000D+00 0.372529029846D-08 0.390000000000D+02
    0.388818000000D+06 0.400000000000D+01 0.000000000000D+00 0.000000000000D+00
31 20  8 13 14  0  0.0-0.619161874056D-04-0.238742359215D-11 0.000000000000D+00
    0.140000000000D+02 0.198750000000D+02 0.451804533758D-08 0.281391188044D+00
    0.118836760521D-05 0.958161905874D-02 0.855699181557D-05 0.515363218880D+04
    0.396000000000D+06 0.173225998878D-06-0.142712629043D+01 0.745058059692D-07
    0.956853026872D+00 0.210968750000D+03 0.146545792449D+00-0.810033741157D-08
   -0.200008331150D-09 0.100000000000D+01 0.211800000000D+04 0.000000000000D+00
    0.200000000000D+01 0.000000000000D+00-0.130385160446D-07 0.140000000000D+02
    0.388818000000D+06 0.400000000000D+01 0.000000000000D+00 0.000000000000D+00
32 20  8 13 14  0  0.0 0.332011375576D-03 0.545696821064D-11 0.000000000000D+00
    0.290000000000D+02-0.418750000000D+01 0.467448042516D-08-0.212326736723D+01
   -0.800937414169D-07 0.410758319777D-02 0.692903995514D-05 0.515373891258D+04
    0.396000000000D+06-0.149011611938D-07-0.250822196981D+01-0.782310962677D-07
    0.957033183771D+00 0.245875000000D+03-0.243643618175D+01-0.798176104381D-08
    0.310727228751D-10 0.100000000000D+01 0.211800000000D+04 0.000000000000D+00
    0.200000000000D+01 0.000000000000D+00 0.465661287308D-09 0.290000000000D+02
    0.388818000000D+06 0.400000000000D+01 0.000000000000D+00 0.000000000000D+00
